{
  "type": "FeatureCollection",
  "name": "buildings",
  "metadata": {
    "coordinate_reference_system": "EPSG:4326",
    "area_check_crs": "EPSG:4548",
    "area_sqm_target": 3488738.605,
    "area_sqm_calculated": 3488738.605,
    "generation_note": "Union of design-proposal cells sized to match metrics.json share of site area; provisional geometry, not official redline."
  },
  "features": [
    {
      "type": "Feature",
      "id": "BLDG-GRID",
      "properties": {
        "id": "BLDG-GRID",
        "layer": "BUILDING_FOOTPRINT",
        "source_type": "agent_generated_design",
        "confidence": "medium",
        "geometry_role": "design_proposal",
        "name_zh": "AI研发示范建筑基底（按指标占比生成）",
        "area_sqm_declared": 3488738.605
      },
      "geometry": {
        "type": "Polygon",
        "coordinates": [
          [
            [
              116.3304521912424,
              39.9603147648567
            ],
            [
              116.33040826754493,
              39.96481758534084
            ],
            [
              116.33036433396443,
              39.969320402276345
            ],
            [
              116.33621654197214,
              39.96935406184358
            ],
            [
              116.33621850390428,
              39.969151229672725
            ],
            [
              116.34207070441691,
              39.96918459358234
            ],
            [
              116.34211192558956,
              39.96488459842717
            ],
            [
              116.34796376922064,
              39.96491766191025
            ],
            [
              116.35381562247571,
              39.96495043001803
            ],
            [
              116.35385801096892,
              39.96044758846623
            ],
            [
              116.35390038992686,
              39.95594474336865
            ],
            [
              116.35394275935188,
              39.95144189472538
            ],
            [
              116.34809205725199,
              39.951409142205556
            ],
            [
              116.34224136476885,
              39.95137609445091
            ],
            [
              116.33639068198877,
              39.951342751462896
            ],
            [
              116.33054000899806,
              39.95130911324296
            ],
            [
              116.33049610505928,
              39.95581194082403
            ],
            [
              116.3304521912424,
              39.9603147648567
            ]
          ]
        ]
      }
    }
  ]
}