{
  "type": "FeatureCollection",
  "name": "green_space",
  "metadata": {
    "coordinate_reference_system": "EPSG:4326",
    "area_check_crs": "EPSG:4548",
    "area_sqm_target": 12210585.116,
    "area_sqm_calculated": 12210585.116,
    "generation_note": "Union of design-proposal cells sized to match metrics.json share of site area; provisional geometry, not official redline."
  },
  "features": [
    {
      "type": "Feature",
      "id": "GREEN-GRID",
      "properties": {
        "id": "GREEN-GRID",
        "layer": "GREEN_SPACE",
        "source_type": "agent_generated_design",
        "confidence": "medium",
        "geometry_role": "design_proposal",
        "name_zh": "连续公园绿地（按指标占比生成）",
        "area_sqm_declared": 12210585.116
      },
      "geometry": {
        "type": "Polygon",
        "coordinates": [
          [
            [
              116.33036433396443,
              39.969320402276345
            ],
            [
              116.33032039049836,
              39.97382321566312
            ],
            [
              116.3302764371443,
              39.978326025501055
            ],
            [
              116.33023247389971,
              39.98282883179004
            ],
            [
              116.33018850076215,
              39.98733163452998
            ],
            [
              116.33014451772908,
              39.99183443372076
            ],
            [
              116.3301005247981,
              39.996337229362275
            ],
            [
              116.33005652196664,
              40.00084002145442
            ],
            [
              116.33001250923223,
              40.005342809997096
            ],
            [
              116.32997542783917,
              40.009135688238395
            ],
            [
              116.33583103403816,
              40.00916939503493
            ],
            [
              116.33586779142078,
              40.005376512292145
            ],
            [
              116.34172308342819,
              40.00540991879294
            ],
            [
              116.34757838516795,
              40.00544302949807
            ],
            [
              116.35343369655354,
              40.005475844406064
            ],
            [
              116.35347617097216,
              40.00097303477114
            ],
            [
              116.35351863583394,
              39.99647022158948
            ],
            [
              116.35356109114126,
              39.99196740486121
            ],
            [
              116.3536035368965,
              39.987464584586384
            ],
            [
              116.35364597310208,
              39.98296176076514
            ],
            [
              116.3536883997604,
              39.97845893339759
            ],
            [
              116.35373081687382,
              39.97395610248381
            ],
            [
              116.35377322444482,
              39.96945326802392
            ],
            [
              116.35381562247571,
              39.96495043001803
            ],
            [
              116.35385801096892,
              39.96044758846623
            ],
            [
              116.35390038992686,
              39.95594474336865
            ],
            [
              116.35394275935188,
              39.95144189472538
            ],
            [
              116.34809205725199,
              39.951409142205556
            ],
            [
              116.34224136476885,
              39.95137609445091
            ],
            [
              116.33639068198877,
              39.951342751462896
            ],
            [
              116.33054000899806,
              39.95130911324296
            ],
            [
              116.33049610505928,
              39.95581194082403
            ],
            [
              116.3304521912424,
              39.9603147648567
            ],
            [
              116.33040826754493,
              39.96481758534084
            ],
            [
              116.33036433396443,
              39.969320402276345
            ]
          ]
        ]
      }
    }
  ]
}