{
  "type": "FeatureCollection",
  "name": "public_space",
  "metadata": {
    "coordinate_reference_system": "EPSG:4326",
    "area_check_crs": "EPSG:4548",
    "area_sqm_target": 3052646.279,
    "area_sqm_calculated": 3052646.279,
    "generation_note": "Union of design-proposal cells sized to match metrics.json share of site area; provisional geometry, not official redline."
  },
  "features": [
    {
      "type": "Feature",
      "id": "PUBLIC-GRID",
      "properties": {
        "id": "PUBLIC-GRID",
        "layer": "PUBLIC_SPACE",
        "source_type": "agent_generated_design",
        "confidence": "medium",
        "geometry_role": "design_proposal",
        "name_zh": "公共活动界面（按指标占比生成）",
        "area_sqm_declared": 3052646.279
      },
      "geometry": {
        "type": "Polygon",
        "coordinates": [
          [
            [
              116.3304521912424,
              39.9603147648567
            ],
            [
              116.33040826754493,
              39.96481758534084
            ],
            [
              116.33039901660834,
              39.9657658118638
            ],
            [
              116.33625092156531,
              39.96579946721719
            ],
            [
              116.33626009166889,
              39.96485123957021
            ],
            [
              116.34211192558956,
              39.96488459842717
            ],
            [
              116.34796376922064,
              39.96491766191025
            ],
            [
              116.35381562247571,
              39.96495043001803
            ],
            [
              116.35385801096892,
              39.96044758846623
            ],
            [
              116.35390038992686,
              39.95594474336865
            ],
            [
              116.35394275935188,
              39.95144189472538
            ],
            [
              116.34809205725199,
              39.951409142205556
            ],
            [
              116.34224136476885,
              39.95137609445091
            ],
            [
              116.33639068198877,
              39.951342751462896
            ],
            [
              116.33054000899806,
              39.95130911324296
            ],
            [
              116.33049610505928,
              39.95581194082403
            ],
            [
              116.3304521912424,
              39.9603147648567
            ]
          ]
        ]
      }
    }
  ]
}