{
  "type": "FeatureCollection",
  "name": "roads_scaffold",
  "features": [
    {
      "type": "Feature",
      "id": "ROAD-001",
      "properties": {
        "id": "ROAD-001",
        "layer": "ROAD_CENTERLINE",
        "source_type": "agent_inferred_from_public_data",
        "confidence": "medium",
        "geometry_role": "design_proposal",
        "road_class": "greenway",
        "name_zh": "慢行与创新服务廊道"
      },
      "geometry": {
        "type": "LineString",
        "coordinates": [
          [
            116.340948,
            39.9845
          ],
          [
            116.35374,
            39.9845
          ]
        ]
      }
    }
  ],
  "metadata": {
    "boundary_status": "maintainer_defined_provisional"
  }
}
